{"format":"tle-catalog-v1","generatedAt":"2026-07-01T14:19:31.438Z","count":19018,"entries":[{"name":"AISSAT 1","line1":"1 36797U 10035C   26181.97587891  .00002257  00000+0  19936-3 0  9999","line2":"2 36797  98.0902  81.7061 0009268  17.7400 342.4143 14.97415888866285"},{"name":"APRIZESAT 6","line1":"1 37793U 11044F   26182.02612413  .00000883  00000+0  13136-3 0  9992","line2":"2 37793  98.2353  92.8077 0044088  43.0066 329.2231 14.76937493799197"},{"name":"BEESAT-1","line1":"1 35933U 09051C   26182.00550198  .00000881  00000+0  18662-3 0  9997","line2":"2 35933  98.3952  89.7404 0005167 169.6659 190.4649 14.61742388891201"},{"name":"CARTOSAT-2B","line1":"1 36795U 10035A   26182.21197711  .00000121  00000+0  23624-4 0  9991","line2":"2 36795  97.9948 232.6722 0011947 139.6801 220.5298 14.78599688861921"},{"name":"COSMO-SKYMED 4","line1":"1 37216U 10060A   26182.21589992  .00000645  00000+0  87600-4 0  9999","line2":"2 37216  97.8882   5.6120 0001479  84.3314 275.8068 14.82157471846645"},{"name":"COSMOS 2463","line1":"1 36519U 10017A   26182.12288786  .00000058  00000+0  47342-4 0  9990","line2":"2 36519  82.9595 239.4674 0037614  91.5617 330.9747 13.71666493809847"},{"name":"DMSP 5D-3 F18 (USA 210)","line1":"1 35951U 09057A   26182.21352366  .00000274  00000+0  16492-3 0  9998","line2":"2 35951  98.9044 162.9525 0010409 205.9359 154.1293 14.14904725861575"},{"name":"ELEKTRO-L 1 (GOMS 2)","line1":"1 37344U 11001A   26181.70592575  .00000000  00000+0  00000+0 0  9990","line2":"2 37344   9.7147  54.3673 0004513  33.3945 328.0472  1.00158673 56625"},{"name":"FENGYUN 3B","line1":"1 37214U 10059A   26182.16755722 -.00000290  00000+0 -12670-3 0  9997","line2":"2 37214  98.9615 228.2409 0022660 144.7195 291.3646 14.14843477809406"},{"name":"ITUPSAT1","line1":"1 35935U 09051E   26182.00849896  .00000807  00000+0  17649-3 0  9997","line2":"2 35935  98.4036  88.9208 0007044 186.0225 174.0891 14.60460825890756"},{"name":"JUGNU","line1":"1 37839U 11058B   26180.52221220  .00000404  00000+0  71335-4 0  9998","line2":"2 37839  19.9594 233.4895 0018388 212.2255 288.6400 14.13779747760775"},{"name":"KKS-1 (KISEKI)","line1":"1 33499U 09002H   26182.15448472  .00001503  00000+0  19099-3 0  9992","line2":"2 33499  98.1184 104.8180 0006492 240.5169 119.5397 14.83159780938260"},{"name":"METEOR-M 1","line1":"1 35865U 09049A   26182.13663810  .00000065  00000+0  48350-4 0  9990","line2":"2 35865  98.7393 144.5102 0001074 272.2896  87.8159 14.23159815871231"},{"name":"NOAA 19","line1":"1 33591U 09005A   26182.20751509  .00000059  00000+0  55472-4 0  9993","line2":"2 33591  98.9517 253.0922 0013557 355.3600   4.7445 14.13476502896468"},{"name":"O/OREOS (USA 219)","line1":"1 37224U 10062C   26182.05861606  .00002639  00000+0  25417-3 0  9999","line2":"2 37224  71.9708  48.9174 0013142  33.5439 326.6560 14.93802741118718"},{"name":"OCEANSAT-2","line1":"1 35931U 09051A   26182.21079336 -.00000225  00000+0 -12808-3 0  9998","line2":"2 35931  98.2318 167.6626 0016354 194.2637 165.8070 13.99659748881295"},{"name":"PROBA-2","line1":"1 36037U 09059B   26182.06434318  .00000218  00000+0  61235-4 0  9991","line2":"2 36037  98.2452   5.2248 0012158 234.6770 125.3291 14.54868522883544"},{"name":"RADUGA-1M 2","line1":"1 36358U 10002A   26182.25089944  .00000072  00000+0  00000+0 0  9995","line2":"2 36358   3.6557  78.6910 0005117 268.6137 264.9759  0.98965436 50165"},{"name":"RESOURCESAT-2","line1":"1 37387U 11015A   26182.16558375  .00000112  00000+0  71166-4 0  9993","line2":"2 37387  98.7639 249.5105 0010759 211.7479 148.3051 14.21603286788166"},{"name":"SHIJIAN-6 04B (SJ-6 04B)","line1":"1 37180U 10051B   26182.17134064  .00001682  00000+0  14254-3 0  9996","line2":"2 37180  97.8712 187.7278 0006858 263.8970  96.1472 14.99358731857770"},{"name":"SRMSAT","line1":"1 37841U 11058D   26182.09465924  .00000383  00000+0  64337-4 0  9996","line2":"2 37841  19.9733 335.2931 0011800 357.4483 159.7900 14.11578458759788"},{"name":"STARS (KUKAI)","line1":"1 33498U 09002G   26181.39741097  .00004041  00000+0  36711-3 0  9995","line2":"2 33498  98.1549 129.2455 0009988 121.2061 239.0139 14.95834580940456"},{"name":"SUOMI NPP","line1":"1 37849U 11061A   26182.15579959  .00000074  00000+0  56203-4 0  9999","line2":"2 37849  98.7955 122.9365 0000760 319.2961  40.8158 14.19520173760426"},{"name":"SWISSCUBE","line1":"1 35932U 09051B   26182.12570260  .00001125  00000+0  23153-3 0  9994","line2":"2 35932  98.4025  90.2564 0006978 158.3297 201.8200 14.62508299891190"},{"name":"TISAT 1","line1":"1 36799U 10035E   26182.09506544  .00024088  00000+0  77502-3 0  9990","line2":"2 36799  98.0709 129.8832 0003233 144.7314 215.4140 15.32235292869832"},{"name":"UK-DMC 2","line1":"1 35683U 09041C   26182.19041755  .00000364  00000+0  59912-4 0  9992","line2":"2 35683  97.8853 316.8152 0001240  97.4636 262.6715 14.76074726908634"},{"name":"XIWANG-1 (HOPE-1)","line1":"1 36122U 09072B   26182.15172068  .00000286  00000+0  86519-3 0  9998","line2":"2 36122 100.4030 135.7615 0007156 197.4134 162.6735 13.16440551794842"},{"name":"YAOGAN-10","line1":"1 36834U 10038A   26182.23373578  .00001657  00000+0  19869-3 0  9997","line2":"2 36834  97.8967 205.5257 0001666  86.7229   3.6322 14.85390209859291"},{"name":"YAOGAN-12","line1":"1 37875U 11066B   26182.16111250  .00004726  00000+0  18203-3 0  9995","line2":"2 37875  97.1134 220.0728 0010212 166.0530 194.0993 15.26759958814178"},{"name":"YAOGAN-7","line1":"1 36110U 09069A   26182.10250313  .00000561  00000+0  84731-4 0  9997","line2":"2 36110  98.0054  67.8826 0024566 357.8391   2.2709 14.78023940891685"},{"name":"YOUTHSAT","line1":"1 37388U 11015B   26181.50139843  .00000168  00000+0  88442-4 0  9992","line2":"2 37388  98.3690 154.9555 0013460 306.3227 166.0908 14.25635487789534"}]}